GSAT0227 (GALILEO 30)
1 59600U 24079C   25331.21890220  .00000052  00000+0  00000+0 0  9995
2 59600  54.9870 106.7285 0003557 112.9370 247.0805  1.70474670  9929